{
"type": "FeatureCollection",
"name": "cooper_river_course",
"crs": { "type": "name", "properties": { "name": "urn:ogc:def:crs:OGC:1.3:CRS84" } },
"features": [
{ "type": "Feature", "properties": { }, "geometry": { "type": "LineString", "coordinates": [ [ -79.875059, 32.790784 ], [ -79.875059, 32.790785 ], [ -79.875778, 32.790581 ], [ -79.876033, 32.790492 ], [ -79.876338, 32.790451 ], [ -79.876884, 32.79045 ], [ -79.877436, 32.790509 ], [ -79.877436, 32.790509 ], [ -79.877559, 32.790522 ], [ -79.877866, 32.790595 ], [ -79.878327, 32.790769 ], [ -79.87868, 32.790945 ], [ -79.879187, 32.791271 ], [ -79.879964, 32.792009 ], [ -79.879964, 32.792009 ], [ -79.880418, 32.792435 ], [ -79.881481, 32.793398 ], [ -79.882343, 32.794221 ], [ -79.882343, 32.794221 ], [ -79.882926, 32.794778 ], [ -79.883511, 32.795272 ], [ -79.883658, 32.795379 ], [ -79.884228, 32.795734 ], [ -79.884616, 32.795908 ], [ -79.885227, 32.796148 ], [ -79.886434, 32.796478 ], [ -79.889476, 32.797216 ], [ -79.889476, 32.797216 ], [ -79.890293, 32.797405 ], [ -79.891036, 32.797511 ], [ -79.892267, 32.797584 ], [ -79.892956, 32.797548 ], [ -79.894546, 32.797427 ], [ -79.894806, 32.797422 ], [ -79.89552, 32.797437 ], [ -79.89552, 32.797437 ], [ -79.896243, 32.797527 ], [ -79.896532, 32.797605 ], [ -79.896532, 32.797605 ], [ -79.896744, 32.797662 ], [ -79.896964, 32.797742 ], [ -79.896964, 32.797742 ], [ -79.897393, 32.797897 ], [ -79.897701, 32.798057 ], [ -79.89791, 32.798197 ], [ -79.898162, 32.798397 ], [ -79.898372, 32.798591 ], [ -79.8987, 32.798998 ], [ -79.899145, 32.799701 ], [ -79.899393, 32.80002 ], [ -79.899393, 32.80002 ], [ -79.899655, 32.800301 ], [ -79.899966, 32.800549 ], [ -79.900325, 32.80077 ], [ -79.900685, 32.800923 ], [ -79.901135, 32.801049 ], [ -79.90179, 32.801162 ], [ -79.902191, 32.801224 ], [ -79.902191, 32.801224 ], [ -79.90331, 32.801396 ], [ -79.904983, 32.801642 ], [ -79.906056, 32.801814 ], [ -79.906056, 32.801814 ], [ -79.907347, 32.802022 ], [ -79.912357, 32.80265 ], [ -79.912357, 32.80265 ], [ -79.917812, 32.803346 ], [ -79.91983, 32.803642 ], [ -79.929673, 32.804897 ], [ -79.930942, 32.805043 ], [ -79.931699, 32.805084 ], [ -79.931699, 32.805084 ], [ -79.933519, 32.805136 ], [ -79.934619, 32.805113 ], [ -79.935603, 32.805059 ], [ -79.936483, 32.804982 ], [ -79.937779, 32.8048 ], [ -79.939361, 32.804554 ], [ -79.944127, 32.804187 ], [ -79.944127, 32.804187 ], [ -79.944283, 32.804175 ], [ -79.944763, 32.804138 ], [ -79.945527, 32.804079 ], [ -79.945423, 32.803916 ], [ -79.945423, 32.803916 ], [ -79.944428, 32.802345 ], [ -79.944154, 32.801873 ], [ -79.944073, 32.801684 ], [ -79.943584, 32.8009 ], [ -79.943413, 32.800658 ], [ -79.942988, 32.799958 ], [ -79.942015, 32.798428 ], [ -79.941903, 32.798331 ], [ -79.941167, 32.797179 ], [ -79.940881, 32.796728 ], [ -79.940881, 32.796728 ], [ -79.938641, 32.793304 ], [ -79.938641, 32.793304 ], [ -79.938518, 32.79312 ], [ -79.939614, 32.792192 ], [ -79.939614, 32.792192 ], [ -79.940252, 32.791648 ], [ -79.940034, 32.79132 ], [ -79.940034, 32.79132 ], [ -79.93945, 32.790435 ], [ -79.938628, 32.789284 ], [ -79.9379, 32.788185 ], [ -79.936279, 32.785819 ], [ -79.935838, 32.785122 ], [ -79.934244, 32.782762 ], [ -79.934244, 32.782762 ], [ -79.934016, 32.782433 ], [ -79.933024, 32.782853 ], [ -79.933024, 32.782853 ], [ -79.931951, 32.783308 ], [ -79.932211, 32.783673 ], [ -79.932211, 32.783673 ], [ -79.933148, 32.785043 ] ] } }
]
}
