{
"type": "FeatureCollection",
"name": "peachtree_course",
"crs": { "type": "name", "properties": { "name": "urn:ogc:def:crs:OGC:1.3:CRS84" } },
"features": [
{ "type": "Feature", "properties": { "name": "AJC Peachtree Road Race", "source": "PlotARoute route 2300594", "validation_status": "validated" }, "geometry": { "type": "LineString", "coordinates": [ [ -84.36328, 33.849322 ], [ -84.36328, 33.849322 ], [ -84.363232, 33.849339 ], [ -84.363297, 33.84944 ], [ -84.364376, 33.849057 ], [ -84.364549, 33.849017 ], [ -84.364689, 33.848998 ], [ -84.365429, 33.849032 ], [ -84.365567, 33.849024 ], [ -84.365724, 33.848997 ], [ -84.365906, 33.848944 ], [ -84.36628, 33.848765 ], [ -84.36652, 33.8486 ], [ -84.366659, 33.848486 ], [ -84.367132, 33.848011 ], [ -84.367807, 33.847322 ], [ -84.368195, 33.846819 ], [ -84.368355, 33.846493 ], [ -84.368619, 33.84572 ], [ -84.3688, 33.845427 ], [ -84.369056, 33.845177 ], [ -84.369172, 33.845086 ], [ -84.369606, 33.844815 ], [ -84.370336, 33.84439 ], [ -84.371423, 33.843797 ], [ -84.372006, 33.843454 ], [ -84.372438, 33.843136 ], [ -84.372542, 33.843006 ], [ -84.374416, 33.841739 ], [ -84.374937, 33.84141 ], [ -84.375616, 33.841061 ], [ -84.376528, 33.840647 ], [ -84.377013, 33.840448 ], [ -84.37725, 33.840382 ], [ -84.377394, 33.840361 ], [ -84.377535, 33.840344 ], [ -84.378127, 33.840321 ], [ -84.378459, 33.840265 ], [ -84.378795, 33.840131 ], [ -84.3792, 33.83991 ], [ -84.379277, 33.839905 ], [ -84.379793, 33.839529 ], [ -84.379899, 33.839416 ], [ -84.379865, 33.839407 ], [ -84.379865, 33.839407 ], [ -84.379899, 33.839416 ], [ -84.380105, 33.839191 ], [ -84.380448, 33.83878 ], [ -84.38088, 33.838209 ], [ -84.380993, 33.838161 ], [ -84.381426, 33.83717 ], [ -84.381417, 33.837082 ], [ -84.382191, 33.835392 ], [ -84.382438, 33.834884 ], [ -84.382689, 33.834415 ], [ -84.382894, 33.834048 ], [ -84.383047, 33.833819 ], [ -84.385462, 33.831505 ], [ -84.387379, 33.82959 ], [ -84.387422, 33.829505 ], [ -84.387454, 33.82927 ], [ -84.387462, 33.828644 ], [ -84.387455, 33.824015 ], [ -84.387469, 33.82309 ], [ -84.387503, 33.822865 ], [ -84.387984, 33.821388 ], [ -84.388484, 33.819668 ], [ -84.388813, 33.818291 ], [ -84.388917, 33.818058 ], [ -84.389057, 33.817821 ], [ -84.38937, 33.817357 ], [ -84.390108, 33.816426 ], [ -84.390318, 33.816194 ], [ -84.391094, 33.815643 ], [ -84.391282, 33.815473 ], [ -84.391481, 33.815264 ], [ -84.391638, 33.815058 ], [ -84.391834, 33.814718 ], [ -84.392296, 33.813699 ], [ -84.392466, 33.813238 ], [ -84.392485, 33.813081 ], [ -84.392466, 33.812892 ], [ -84.392248, 33.812172 ], [ -84.392263, 33.811726 ], [ -84.392347, 33.811364 ], [ -84.392491, 33.810973 ], [ -84.393501, 33.80851 ], [ -84.393613, 33.808216 ], [ -84.393719, 33.8078 ], [ -84.393905, 33.806632 ], [ -84.393947, 33.806264 ], [ -84.39395, 33.806001 ], [ -84.393915, 33.805746 ], [ -84.393857, 33.80552 ], [ -84.393616, 33.8048 ], [ -84.393055, 33.803313 ], [ -84.392804, 33.8022 ], [ -84.392776, 33.801908 ], [ -84.392753, 33.801045 ], [ -84.3927, 33.800794 ], [ -84.39257, 33.800319 ], [ -84.392346, 33.799815 ], [ -84.392282, 33.799714 ], [ -84.392141, 33.799496 ], [ -84.391856, 33.79912 ], [ -84.391592, 33.798873 ], [ -84.391021, 33.798412 ], [ -84.389804, 33.797581 ], [ -84.389675, 33.797508 ], [ -84.38913, 33.797266 ], [ -84.388974, 33.797216 ], [ -84.388974, 33.797216 ], [ -84.388367, 33.797016 ], [ -84.388177, 33.796934 ], [ -84.388037, 33.796808 ], [ -84.387962, 33.796717 ], [ -84.38787, 33.796553 ], [ -84.387869, 33.796553 ], [ -84.387785, 33.79638 ], [ -84.387762, 33.796274 ], [ -84.387745, 33.795889 ], [ -84.387764, 33.795126 ], [ -84.387764, 33.795126 ], [ -84.387754, 33.794855 ], [ -84.387722, 33.79472 ], [ -84.387655, 33.79455 ], [ -84.38762, 33.794488 ], [ -84.38762, 33.794488 ], [ -84.386377, 33.792513 ], [ -84.384455, 33.789608 ], [ -84.384445, 33.789519 ], [ -84.384206, 33.789091 ], [ -84.384115, 33.789028 ], [ -84.383737, 33.788121 ], [ -84.383734, 33.788013 ], [ -84.383612, 33.787712 ], [ -84.383507, 33.787623 ], [ -84.383152, 33.78658 ], [ -84.383065, 33.78605 ], [ -84.383014, 33.785518 ], [ -84.383017, 33.784756 ], [ -84.383054, 33.784419 ], [ -84.383121, 33.784218 ], [ -84.383242, 33.784023 ], [ -84.38366, 33.78355 ], [ -84.383808, 33.783303 ], [ -84.383896, 33.78309 ], [ -84.384024, 33.781719 ], [ -84.384001, 33.781716 ], [ -84.384001, 33.781716 ], [ -84.38392, 33.781708 ], [ -84.382594, 33.781745 ], [ -84.382419, 33.781765 ], [ -84.380365, 33.781796 ], [ -84.374667, 33.781792 ] ] } }
]
}
