{
"type": "FeatureCollection",
"name": "peachtree_course_aoi",
"crs": { "type": "name", "properties": { "name": "urn:ogc:def:crs:OGC:1.3:CRS84" } },
"features": [
{ "type": "Feature", "properties": { "name": "Peachtree Road Race course corridor", "buffer_metres": 200.0 }, "geometry": { "type": "Polygon", "coordinates": [ [ [ -84.390281710105057, 33.813034198094712 ], [ -84.390154391939802, 33.81261366201128 ], [ -84.39011468103277, 33.812451467784442 ], [ -84.390092964232593, 33.812286916475216 ], [ -84.39008942461075, 33.812121396033469 ], [ -84.390104435783826, 33.811675396823375 ], [ -84.390116568516007, 33.811528644361118 ], [ -84.390142996007199, 33.811383206368497 ], [ -84.390227004417355, 33.811021208203421 ], [ -84.390282941727179, 33.810834301325535 ], [ -84.390426949914058, 33.810443304111324 ], [ -84.3904480003537, 33.810389203760337 ], [ -84.391450390071668, 33.807944901512897 ], [ -84.391523034059063, 33.807754222960881 ], [ -84.391589539976053, 33.807493243412054 ], [ -84.391759256202306, 33.806427663498312 ], [ -84.391788698872389, 33.806169746072491 ], [ -84.391789549305201, 33.80609535553041 ], [ -84.391781687741585, 33.806038067914272 ], [ -84.39175953555268, 33.805951742362701 ], [ -84.391545888392045, 33.80531341327265 ], [ -84.390995508354194, 33.803854467862813 ], [ -84.390933064559334, 33.80364648372494 ], [ -84.390682091680603, 33.802533480711126 ], [ -84.390651704766128, 33.802343819050499 ], [ -84.39062371210585, 33.802051818911657 ], [ -84.390617363638427, 33.801948076443743 ], [ -84.390598044983747, 33.801222521272749 ], [ -84.390583034407769, 33.801151424964779 ], [ -84.390496568574193, 33.80083546367635 ], [ -84.390371399595125, 33.800553818204918 ], [ -84.390276595920753, 33.800407237187208 ], [ -84.390126591163579, 33.800209330567 ], [ -84.39003391903438, 33.800122624232628 ], [ -84.389584587528361, 33.799759848326993 ], [ -84.388536187566288, 33.79904396422419 ], [ -84.388232813260643, 33.798909253866967 ], [ -84.388200179569267, 33.798898794267288 ], [ -84.388181401974521, 33.798892691667767 ], [ -84.38757439249909, 33.798692687336896 ], [ -84.387375533426891, 33.798617247575912 ], [ -84.387185531038597, 33.798535245942794 ], [ -84.38702362798287, 33.798457792873322 ], [ -84.386870340376433, 33.798368957868988 ], [ -84.386726813209378, 33.798269404507884 ], [ -84.386594118552466, 33.798159876428564 ], [ -84.386454119121211, 33.798033874667567 ], [ -84.386258333515656, 33.797829775266635 ], [ -84.386183334655513, 33.797738774244401 ], [ -84.386088703524877, 33.797613178103632 ], [ -84.38600676618853, 33.797481509531735 ], [ -84.385914769302389, 33.797317508228112 ], [ -84.385916321599922, 33.797316901287573 ], [ -84.385868108419118, 33.797230169683111 ], [ -84.385784111973479, 33.797057168495641 ], [ -84.385711346644669, 33.796881887774639 ], [ -84.385660545095561, 33.796701291395856 ], [ -84.385637547685903, 33.796595291124504 ], [ -84.385604442003654, 33.796340387122619 ], [ -84.385587451704097, 33.795955387286874 ], [ -84.385586455171861, 33.795851513129328 ], [ -84.385603705547837, 33.795159473418764 ], [ -84.384476326155863, 33.793368113843449 ], [ -84.382565279712395, 33.790479569319309 ], [ -84.382468150031471, 33.79031307660653 ], [ -84.382391993226619, 33.790139141516413 ], [ -84.382379264086865, 33.790097115076179 ], [ -84.382341424577106, 33.790055726274041 ], [ -84.382237324786246, 33.789917513679299 ], [ -84.382148630750507, 33.789772003174996 ], [ -84.38207607009187, 33.789620388625643 ], [ -84.381698089867328, 33.788713383347776 ], [ -84.381635508909355, 33.788533635591214 ], [ -84.38163030063663, 33.788509602390512 ], [ -84.381589443909874, 33.788451026695036 ], [ -84.381499865531509, 33.788286716049818 ], [ -84.381430421194366, 33.788115747786399 ], [ -84.381075445187378, 33.787072742980008 ], [ -84.381013217746712, 33.786824756263663 ], [ -84.380926230900343, 33.78629475538802 ], [ -84.380913120006866, 33.786193807714149 ], [ -84.380862133369106, 33.785661807464258 ], [ -84.380855265903293, 33.785512054982895 ], [ -84.380858285043573, 33.784750055945402 ], [ -84.380867292288642, 33.78459141949989 ], [ -84.380904300562293, 33.784254420535042 ], [ -84.380930726425078, 33.784093715137423 ], [ -84.380974347318457, 33.78393564417226 ], [ -84.381041351652783, 33.78373464550242 ], [ -84.381100264769202, 33.7835877416831 ], [ -84.380403987431492, 33.783598245710195 ], [ -84.380363243689104, 33.783598539105675 ], [ -84.374665124154021, 33.783594533327957 ], [ -84.374453544796182, 33.783585699819 ], [ -84.374244021293521, 33.783559591650544 ], [ -84.374038571592024, 33.783516460279756 ], [ -84.373839174393851, 33.78345672111562 ], [ -84.373647750097049, 33.783380949517152 ], [ -84.373466142297517, 33.783289875250937 ], [ -84.373296100031268, 33.783184375461346 ], [ -84.373139260928184, 33.783065466221267 ], [ -84.372997135439576, 33.782934292744734 ], [ -84.372871092291589, 33.782792118355857 ], [ -84.372762345304309, 33.78264031232036 ], [ -84.372671941703771, 33.782480336656917 ], [ -84.372600752039162, 33.782313732055457 ], [ -84.372549461802237, 33.782142103037948 ], [ -84.372518564829761, 33.781967102505071 ], [ -84.37250835855194, 33.781790415816978 ], [ -84.372518941132867, 33.78161374456208 ], [ -84.372550210530051, 33.781438790169766 ], [ -84.372601865481954, 33.781267237525299 ], [ -84.372673408413988, 33.78110073874408 ], [ -84.372764150234573, 33.780940897262212 ], [ -84.372873216975137, 33.780789252395842 ], [ -84.372999558209713, 33.780647264518571 ], [ -84.37314195717326, 33.780516300999025 ], [ -84.373299042480895, 33.780397623034482 ], [ -84.373469301335248, 33.780292373506754 ], [ -84.373651094094811, 33.780201565977698 ], [ -84.373842670062785, 33.780126074929932 ], [ -84.374042184344816, 33.780066627346713 ], [ -84.374247715612839, 33.780023795712083 ], [ -84.374457284604674, 33.779997992498757 ], [ -84.374668873180866, 33.779989466196419 ], [ -84.380346380982274, 33.77999344660676 ], [ -84.38225255301252, 33.779964676620082 ], [ -84.382301290104067, 33.779959106592301 ], [ -84.382521920744253, 33.779943462796652 ], [ -84.383847892867607, 33.779906462242565 ], [ -84.384010979496367, 33.779907057903436 ], [ -84.384173546852239, 33.779917933455586 ], [ -84.384254545211064, 33.779925933211921 ], [ -84.384334141157936, 33.779935051606756 ], [ -84.384357140701326, 33.77993805152326 ], [ -84.384567511269978, 33.77997452816075 ], [ -84.384772497480853, 33.780028287447344 ], [ -84.384970068583357, 33.780098796811394 ], [ -84.385158267272061, 33.780185357741047 ], [ -84.385335229074812, 33.780287112702851 ], [ -84.385499200822096, 33.780403053635595 ], [ -84.385648558014523, 33.780532031935323 ], [ -84.385781820916591, 33.780672769832762 ], [ -84.385897669217329, 33.780823873050238 ], [ -84.385994955112608, 33.780983844613296 ], [ -84.386072714679059, 33.781151099679597 ], [ -84.38613017742739, 33.781323981238906 ], [ -84.386166773939905, 33.781500776528219 ], [ -84.386182141516556, 33.781679733999717 ], [ -84.386176127773382, 33.781859080673307 ], [ -84.386048161602389, 33.783230084502101 ], [ -84.386026221328294, 33.783381789116945 ], [ -84.385988972183796, 33.783531396923557 ], [ -84.385936681783519, 33.783677832758592 ], [ -84.385848686042181, 33.783890834409483 ], [ -84.385738555868443, 33.78410953528811 ], [ -84.385590559713506, 33.784356537775622 ], [ -84.385500569818092, 33.784491873119904 ], [ -84.385397005615317, 33.78462026233251 ], [ -84.385175290488817, 33.78487115669882 ], [ -84.38517303037014, 33.785448911489254 ], [ -84.385212020603191, 33.785855526336881 ], [ -84.385270115291405, 33.786209382673356 ], [ -84.385470344194729, 33.786797619718861 ], [ -84.385499270984525, 33.786836827682407 ], [ -84.385586111288944, 33.786982515110168 ], [ -84.385656861858791, 33.787134148346389 ], [ -84.385778868479221, 33.787435146648185 ], [ -84.385838251418093, 33.787610327622744 ], [ -84.385867401019482, 33.787748162825174 ], [ -84.386022438122765, 33.788120148623548 ], [ -84.386074364339677, 33.788187943818635 ], [ -84.386162600158329, 33.788329276376011 ], [ -84.386401608305007, 33.788757272990168 ], [ -84.386492855941427, 33.78894847798486 ], [ -84.386500439750108, 33.788971817147683 ], [ -84.388266731731179, 33.791641372761582 ], [ -84.388288128323452, 33.791674523725511 ], [ -84.38953116276015, 33.793649506192821 ], [ -84.389572918060253, 33.793719492389336 ], [ -84.38960791923239, 33.793781491893441 ], [ -84.389705795445806, 33.793986572244329 ], [ -84.389772799217496, 33.794156571314524 ], [ -84.389839900500647, 33.794370039841496 ], [ -84.389871903774377, 33.794505039449852 ], [ -84.389899192772731, 33.794651568388026 ], [ -84.389911963560735, 33.794799474240058 ], [ -84.389921970387931, 33.795070474389483 ], [ -84.389922530158074, 33.795163447902588 ], [ -84.389912010442174, 33.795586327865443 ], [ -84.390143819416835, 33.795674542856226 ], [ -84.390688812783111, 33.795916538084185 ], [ -84.390886367103604, 33.796015906925867 ], [ -84.391015366064281, 33.796088905615875 ], [ -84.391170884560282, 33.796185699857915 ], [ -84.392387879847462, 33.797016686213681 ], [ -84.392521897053157, 33.79711623080518 ], [ -84.393092897439161, 33.797577223909052 ], [ -84.393202956671587, 33.797672866143877 ], [ -84.393466958084417, 33.797919862779437 ], [ -84.393579528849116, 33.798034319707256 ], [ -84.393680465669391, 33.798156105336439 ], [ -84.393965471032288, 33.798532101394926 ], [ -84.394040813954902, 33.798639537271129 ], [ -84.394181817667032, 33.798857535285478 ], [ -84.394190494001663, 33.798871087089168 ], [ -84.39425449575289, 33.79897208618651 ], [ -84.394370251761487, 33.799187931338082 ], [ -84.394594262507198, 33.799691928187869 ], [ -84.394674878288782, 33.79991747574563 ], [ -84.394804889626997, 33.800392474074009 ], [ -84.394826350577759, 33.800481050797586 ], [ -84.3948793567249, 33.800732050178944 ], [ -84.394901708247829, 33.800867954844016 ], [ -84.394911615169747, 33.801004885007117 ], [ -84.394933251137871, 33.801815937936475 ], [ -84.394947130132607, 33.801960638073531 ], [ -84.395153116435353, 33.802873934454702 ], [ -84.395675501177209, 33.80425848869087 ], [ -84.39569557415517, 33.804314886277012 ], [ -84.395936590786846, 33.805034883019026 ], [ -84.395968344426237, 33.805142373205811 ], [ -84.396026349864442, 33.805368372474668 ], [ -84.39606022899352, 33.80554078871242 ], [ -84.396095235365024, 33.805795788407615 ], [ -84.396109179034411, 33.806018144593601 ], [ -84.396106185641983, 33.806281144958021 ], [ -84.396096553445247, 33.806434943890032 ], [ -84.396054562477488, 33.806802945045185 ], [ -84.396045468300997, 33.806869513041363 ], [ -84.395859496473904, 33.808037517584779 ], [ -84.395831080103363, 33.808175004665372 ], [ -84.395725089630105, 33.808591006921937 ], [ -84.395670799967561, 33.808762248826 ], [ -84.395558806049578, 33.809056250973043 ], [ -84.395543979983046, 33.809093744628562 ], [ -84.39454506496196, 33.811529851669654 ], [ -84.394445041827751, 33.811801459878652 ], [ -84.394416615245646, 33.811923977883247 ], [ -84.394414978783985, 33.811972671817379 ], [ -84.394559605716424, 33.812450298472697 ], [ -84.394595885811739, 33.812594778516598 ], [ -84.394617881275011, 33.812741252090937 ], [ -84.394636886025765, 33.812930251985485 ], [ -84.394644375633149, 33.813096264432104 ], [ -84.394633522962906, 33.813262147374736 ], [ -84.394614526808468, 33.813419147885867 ], [ -84.394582573399575, 33.81359546085735 ], [ -84.394529906080479, 33.813768275722694 ], [ -84.394359915730831, 33.814229279010036 ], [ -84.39431569220865, 33.814336985952004 ], [ -84.39385371172925, 33.815355994404428 ], [ -84.393779952415315, 33.81549956124455 ], [ -84.393583957920285, 33.815839564582632 ], [ -84.393460080044193, 33.816025503042603 ], [ -84.393303082333063, 33.816231505459342 ], [ -84.393171624681003, 33.816385514779391 ], [ -84.392972625827198, 33.816594517548587 ], [ -84.392868838603476, 33.816695618875961 ], [ -84.392680838739849, 33.816865621289935 ], [ -84.392493276246711, 33.817015960491233 ], [ -84.39189801162803, 33.817438634196769 ], [ -84.391871762230451, 33.817467634075143 ], [ -84.391213785067393, 33.818297704617535 ], [ -84.390967804029529, 33.818662365064725 ], [ -84.390902431930542, 33.818773034817539 ], [ -84.390897074129086, 33.818785038979506 ], [ -84.390601918300248, 33.820020510923037 ], [ -84.39058273354965, 33.820092996935578 ], [ -84.390082771991729, 33.821813007223305 ], [ -84.390068057598242, 33.821860766716945 ], [ -84.389626977823326, 33.823215285749619 ], [ -84.389614739585042, 33.824025227073719 ], [ -84.3896218368821, 33.828641708819688 ], [ -84.389621716314011, 33.82866320427852 ], [ -84.389613732056745, 33.829289205162524 ], [ -84.389600046332134, 33.829473515638334 ], [ -84.389568052060753, 33.829708516463548 ], [ -84.389535047202273, 33.829878271232715 ], [ -84.38948280798256, 33.830044628422357 ], [ -84.389411809811378, 33.830206073732263 ], [ -84.38936881133759, 33.830291074495094 ], [ -84.389276221392009, 33.830451495837579 ], [ -84.389165117334585, 33.830603510528157 ], [ -84.389036583291784, 33.830745635120806 ], [ -84.387119590966776, 33.832660661133588 ], [ -84.387090796753952, 33.83268883171614 ], [ -84.384823816191854, 33.834861043646569 ], [ -84.384818673296166, 33.834868741413437 ], [ -84.384654119398434, 33.835163344458628 ], [ -84.384425478486364, 33.835590583770752 ], [ -84.384200815897188, 33.836052664329515 ], [ -84.383554420306453, 33.837464120151132 ], [ -84.383523663010678, 33.837600089250742 ], [ -84.383455376984685, 33.837787439281719 ], [ -84.383022396352075, 33.838778447293407 ], [ -84.382944183620538, 33.838934330658276 ], [ -84.382848819712166, 33.839083416579633 ], [ -84.382737142808395, 33.839224394567125 ], [ -84.382610134499146, 33.839356025395027 ], [ -84.382486580566479, 33.839461997054507 ], [ -84.382274547050415, 33.839742260569281 ], [ -84.382220622642393, 33.839810093820489 ], [ -84.381877626346792, 33.840221098904735 ], [ -84.381821496992075, 33.840285291984081 ], [ -84.381615498476535, 33.84051029490918 ], [ -84.381607554643949, 33.840518109948121 ], [ -84.381599978753087, 33.840527041565487 ], [ -84.381493979422004, 33.840640043052844 ], [ -84.381360891527606, 33.840768899307214 ], [ -84.381213839026259, 33.840886712633697 ], [ -84.380697836274848, 33.841262718422342 ], [ -84.380543305144954, 33.841365322239525 ], [ -84.380378190051474, 33.841455720901365 ], [ -84.380203871028215, 33.841533158843127 ], [ -84.380115565306738, 33.841564117736482 ], [ -84.379977248396642, 33.841639594471296 ], [ -84.379726485682568, 33.84175732443979 ], [ -84.379390480417882, 33.841891326716947 ], [ -84.379227454873671, 33.841949608778016 ], [ -84.379059248850993, 33.841996534585903 ], [ -84.378886996297808, 33.842031787795548 ], [ -84.378554989577609, 33.842087788623914 ], [ -84.378392004692884, 33.842109906691981 ], [ -84.378227471231909, 33.842121571425707 ], [ -84.377788030945339, 33.842138644106193 ], [ -84.377521155918089, 33.842248145355192 ], [ -84.376699387673881, 33.842621185971794 ], [ -84.376158034495418, 33.842899438068642 ], [ -84.375748108480195, 33.843158299017681 ], [ -84.374138164424224, 33.844246785050785 ], [ -84.374124434411684, 33.8442624383812 ], [ -84.374001600058847, 33.844379713441072 ], [ -84.373867090835972, 33.844487702434108 ], [ -84.373435088640548, 33.844805707314556 ], [ -84.373250829661856, 33.844927143761751 ], [ -84.372667823818233, 33.845270149343747 ], [ -84.372605133823413, 33.845305674968891 ], [ -84.37154539796218, 33.845883804521485 ], [ -84.370871570134526, 33.846276103947126 ], [ -84.370622144035238, 33.846431852987124 ], [ -84.370432566489029, 33.846986978825107 ], [ -84.370354144456641, 33.847176082575466 ], [ -84.370194150430365, 33.847502085442599 ], [ -84.370110889202635, 33.847651797503005 ], [ -84.370011564685996, 33.847794527426075 ], [ -84.369623570148164, 33.848297533377483 ], [ -84.369479612883183, 33.848462772117422 ], [ -84.368804616090912, 33.849151781386979 ], [ -84.368793631864435, 33.849162902486981 ], [ -84.36832063384314, 33.849637908927875 ], [ -84.368173401455479, 33.84977147128091 ], [ -84.368034401151064, 33.84988547296625 ], [ -84.367893792535398, 33.849991100003919 ], [ -84.367653790918141, 33.850156102589395 ], [ -84.367508714067995, 33.850247569804921 ], [ -84.367354931746107, 33.850328533346676 ], [ -84.366980926720814, 33.850507536353788 ], [ -84.36680324483757, 33.850583693203625 ], [ -84.36661789149872, 33.850645831157102 ], [ -84.366435888180618, 33.850698832045275 ], [ -84.366160113832748, 33.850762397442111 ], [ -84.36600311065969, 33.85078939784384 ], [ -84.365716739286881, 33.850822172322964 ], [ -84.365578736382218, 33.850830172351422 ], [ -84.365310221958552, 33.850831780625946 ], [ -84.364942185510557, 33.8508148710347 ], [ -84.364142709851208, 33.85109865034137 ], [ -84.363942737019499, 33.851160100859495 ], [ -84.363736480612303, 33.851204813906683 ], [ -84.363525947688387, 33.851232354389872 ], [ -84.363313186927257, 33.851242454320769 ], [ -84.36310026868999, 33.851235015423875 ], [ -84.362889264868869, 33.851210110092723 ], [ -84.362682228722178, 33.851167980685098 ], [ -84.362481174890576, 33.851109037163916 ], [ -84.362288059789648, 33.851033853107083 ], [ -84.362104762569587, 33.850943160124814 ], [ -84.361933066827319, 33.850837840739146 ], [ -84.361774643249547, 33.850718919794751 ], [ -84.361631033355053, 33.850587554484768 ], [ -84.361503634495051, 33.850445023088874 ], [ -84.361393686257202, 33.850292712533161 ], [ -84.361328687991403, 33.85019171161688 ], [ -84.361238014920431, 33.850032616008825 ], [ -84.361166389015366, 33.849866895034666 ], [ -84.361114494351312, 33.849696131705201 ], [ -84.361082826516082, 33.849521957187214 ], [ -84.361071687880667, 33.849346035221608 ], [ -84.361081184715545, 33.84917004623086 ], [ -84.36111122618054, 33.848995671267453 ], [ -84.361161525197247, 33.848824575956783 ], [ -84.36123160119584, 33.848658394587652 ], [ -84.361320784709577, 33.848498714502526 ], [ -84.361428223773331, 33.848347060936625 ], [ -84.361552892064438, 33.848204882450254 ], [ -84.361693598708328, 33.848073537093953 ], [ -84.361848999655109, 33.847954279438277 ], [ -84.362017610518237, 33.847848248591902 ], [ -84.362197820752982, 33.847756457322852 ], [ -84.362387909038731, 33.847679782386201 ], [ -84.36243590823176, 33.847662782674881 ], [ -84.362634885580519, 33.847601740366407 ], [ -84.362840075391631, 33.847557264766913 ], [ -84.363049501690639, 33.847529784180381 ], [ -84.363177436161308, 33.847523605939564 ], [ -84.363530302964506, 33.847398351515096 ], [ -84.3637991010837, 33.847319953700854 ], [ -84.363972097735513, 33.84727995434713 ], [ -84.364202178080618, 33.847237874121937 ], [ -84.364342175197208, 33.847218874376523 ], [ -84.364574310736472, 33.847198035134696 ], [ -84.364807785868052, 33.847198219994844 ], [ -84.365118477580722, 33.847212495253657 ], [ -84.365464894475906, 33.846864619101218 ], [ -84.366056832502153, 33.846260415566199 ], [ -84.366271084549894, 33.845982668394036 ], [ -84.366310374974645, 33.845902617779942 ], [ -84.366541476268395, 33.845225992438607 ], [ -84.366610296085369, 33.845056805292884 ], [ -84.366698850903944, 33.844894134109751 ], [ -84.366879855337487, 33.844601137127313 ], [ -84.367006792370219, 33.844421900600054 ], [ -84.367157651103071, 33.844256072726395 ], [ -84.367413651928842, 33.844006076160646 ], [ -84.36757631890579, 33.843863741152838 ], [ -84.367692318508702, 33.843772742519874 ], [ -84.367877722496345, 33.843642834822944 ], [ -84.368311718657182, 33.843371839175752 ], [ -84.368369925083897, 33.84333673784829 ], [ -84.369099917620872, 33.842911744778888 ], [ -84.369153919130781, 33.842881305543372 ], [ -84.370209189008776, 33.842305618739502 ], [ -84.370665123965964, 33.842037377627612 ], [ -84.370814845854312, 33.841927166984192 ], [ -84.370874647505943, 33.841859981101258 ], [ -84.371020724724843, 33.841726283481634 ], [ -84.371182127455114, 33.841605478324922 ], [ -84.373056114110597, 33.840338498266341 ], [ -84.373112487718572, 33.840301658242247 ], [ -84.373633483232751, 33.839972663512249 ], [ -84.373804122918187, 33.839875261400621 ], [ -84.374483114521738, 33.839526267212172 ], [ -84.374583756987235, 33.839477606737169 ], [ -84.375495744084603, 33.839063613724846 ], [ -84.37557485982542, 33.839029443956804 ], [ -84.376059852374865, 33.838830447335184 ], [ -84.376329195601514, 33.838738178914497 ], [ -84.376566191221741, 33.838672180014925 ], [ -84.376720691157317, 33.838634431721381 ], [ -84.376878130936433, 33.838606389958805 ], [ -84.377022127985796, 33.838585390251048 ], [ -84.377085106129556, 33.838577003352448 ], [ -84.377226103208514, 33.838560003565405 ], [ -84.377434542888793, 33.838543428333075 ], [ -84.377782264968275, 33.838529918857418 ], [ -84.378017787566577, 33.838401399466491 ], [ -84.378113429423365, 33.838354746444054 ], [ -84.378212714201638, 33.838245943457238 ], [ -84.378357048556467, 33.83811639088519 ], [ -84.378389532741295, 33.838092440579452 ], [ -84.378647540021944, 33.837783290164261 ], [ -84.379053501503478, 33.837246720819302 ], [ -84.379135473450603, 33.837150260358854 ], [ -84.379283516808684, 33.83681145322852 ], [ -84.379293817989975, 33.836750445497728 ], [ -84.379338146509639, 33.836592473835367 ], [ -84.379399317118583, 33.8364384683059 ], [ -84.380173349349931, 33.834748482441924 ], [ -84.380189502915343, 33.834714263627291 ], [ -84.38043651227386, 33.834206268062069 ], [ -84.380465788034769, 33.834148925660038 ], [ -84.380716796122513, 33.833679930039757 ], [ -84.380731293858304, 33.833653419207138 ], [ -84.38093629997249, 33.833286422736862 ], [ -84.381007476444239, 33.833170189647781 ], [ -84.381160479596815, 33.832941192127301 ], [ -84.381279820424467, 33.832782558714747 ], [ -84.381418242305287, 33.832635116615535 ], [ -84.383818678017434, 33.830335110157264 ], [ -84.385299325734778, 33.828856043132994 ], [ -84.385302149613594, 33.828635505287643 ], [ -84.385295282149698, 33.824017258690596 ], [ -84.385295453358111, 33.823992212449689 ], [ -84.385309476606963, 33.823067213794907 ], [ -84.385326283846624, 33.822864429988428 ], [ -84.385360289296656, 33.822639430834592 ], [ -84.385418935468508, 33.822392189458526 ], [ -84.385892217951238, 33.820938994502733 ], [ -84.386374801203189, 33.819279045933897 ], [ -84.38669513334915, 33.817938460593638 ], [ -84.386735599980057, 33.8177985029632 ], [ -84.38678931984505, 33.81766168746573 ], [ -84.386893324345323, 33.81742868937738 ], [ -84.386980089794378, 33.817260856718192 ], [ -84.387120093544382, 33.817023859084223 ], [ -84.387175237253587, 33.816936614699003 ], [ -84.387488243553321, 33.816472619750691 ], [ -84.387569009591132, 33.816362337971164 ], [ -84.388307019110371, 33.815431349148248 ], [ -84.388384989451637, 33.815339371002104 ], [ -84.388594991051619, 33.81510737399789 ], [ -84.388747486537326, 33.814956793800896 ], [ -84.388918772746322, 33.81482101691175 ], [ -84.389595555854896, 33.8143404712958 ], [ -84.389641074874191, 33.814299311072624 ], [ -84.389719844472594, 33.814216584804527 ], [ -84.389747436322438, 33.814180382443425 ], [ -84.389847472688274, 33.814006856487104 ], [ -84.3902521872715, 33.813114251664821 ], [ -84.390281710105057, 33.813034198094712 ] ] ] } }
]
}
